CCSDS_OMM_VERS = 2.0
CREATION_DATE  = 
ORIGINATOR     = 

OBJECT_NAME    = STARLINK-37183
OBJECT_ID      = 2026-059AE
CENTER_NAME    = EARTH
REF_FRAME      = TEME
TIME_SYSTEM    = UTC
MEAN_ELEMENT_THEORY = SGP/SGP4

EPOCH          = 2026-04-03T12:24:43.678080
MEAN_MOTION    = 15.80811162
ECCENTRICITY   = .000071
INCLINATION    = 53.1595
RA_OF_ASC_NODE = 238.2174
ARG_OF_PERICENTER = 56.2916
MEAN_ANOMALY   = 303.8175

EPHEMERIS_TYPE = 0
CLASSIFICATION_TYPE = U
NORAD_CAT_ID   = 68349
ELEMENT_SET_NO = 999
REV_AT_EPOCH   = 190
BSTAR          = .25128E-2
MEAN_MOTION_DOT = .52519E-2
MEAN_MOTION_DDOT = 0

CCSDS_OMM_VERS = 2.0
CREATION_DATE  = 
ORIGINATOR     = 

OBJECT_NAME    = CENTISPACE-1 OBJECT A
OBJECT_ID      = 2026-060A
CENTER_NAME    = EARTH
REF_FRAME      = TEME
TIME_SYSTEM    = UTC
MEAN_ELEMENT_THEORY = SGP/SGP4

EPOCH          = 2026-03-31T22:07:19.160256
MEAN_MOTION    = 14.74887229
ECCENTRICITY   = .00130111
INCLINATION    = 54.9828
RA_OF_ASC_NODE = 350.9279
ARG_OF_PERICENTER = 316.4493
MEAN_ANOMALY   = 43.5478

EPHEMERIS_TYPE = 0
CLASSIFICATION_TYPE = U
NORAD_CAT_ID   = 68350
ELEMENT_SET_NO = 999
REV_AT_EPOCH   = 137
BSTAR          = .33707763E-3
MEAN_MOTION_DOT = .2073E-4
MEAN_MOTION_DDOT = 0

CCSDS_OMM_VERS = 2.0
CREATION_DATE  = 
ORIGINATOR     = 

OBJECT_NAME    = CENTISPACE-1 OBJECT B
OBJECT_ID      = 2026-060B
CENTER_NAME    = EARTH
REF_FRAME      = TEME
TIME_SYSTEM    = UTC
MEAN_ELEMENT_THEORY = SGP/SGP4

EPOCH          = 2026-04-03T11:55:25.339584
MEAN_MOTION    = 14.74938146
ECCENTRICITY   = .0013411
INCLINATION    = 54.9822
RA_OF_ASC_NODE = 340.4202
ARG_OF_PERICENTER = 323.5822
MEAN_ANOMALY   = 36.4264

EPHEMERIS_TYPE = 0
CLASSIFICATION_TYPE = U
NORAD_CAT_ID   = 68351
ELEMENT_SET_NO = 999
REV_AT_EPOCH   = 175
BSTAR          = .35681E-3
MEAN_MOTION_DOT = .2209E-4
MEAN_MOTION_DDOT = 0

CCSDS_OMM_VERS = 2.0
CREATION_DATE  = 
ORIGINATOR     = 

OBJECT_NAME    = CENTISPACE-1 OBJECT C
OBJECT_ID      = 2026-060C
CENTER_NAME    = EARTH
REF_FRAME      = TEME
TIME_SYSTEM    = UTC
MEAN_ELEMENT_THEORY = SGP/SGP4

EPOCH          = 2026-04-03T11:53:20.255712
MEAN_MOTION    = 14.75112417
ECCENTRICITY   = .001286
INCLINATION    = 54.9855
RA_OF_ASC_NODE = 340.4152
ARG_OF_PERICENTER = 329.5017
MEAN_ANOMALY   = 30.5234

EPHEMERIS_TYPE = 0
CLASSIFICATION_TYPE = U
NORAD_CAT_ID   = 68352
ELEMENT_SET_NO = 999
REV_AT_EPOCH   = 175
BSTAR          = .46479E-4
MEAN_MOTION_DOT = .106E-5
MEAN_MOTION_DDOT = 0

CCSDS_OMM_VERS = 2.0
CREATION_DATE  = 
ORIGINATOR     = 

OBJECT_NAME    = CENTISPACE-1 OBJECT D
OBJECT_ID      = 2026-060D
CENTER_NAME    = EARTH
REF_FRAME      = TEME
TIME_SYSTEM    = UTC
MEAN_ELEMENT_THEORY = SGP/SGP4

EPOCH          = 2026-03-31T12:19:36.304032
MEAN_MOTION    = 14.75128916
ECCENTRICITY   = .00132122
INCLINATION    = 54.9893
RA_OF_ASC_NODE = 352.5746
ARG_OF_PERICENTER = 325.1986
MEAN_ANOMALY   = 34.8148

EPHEMERIS_TYPE = 0
CLASSIFICATION_TYPE = U
NORAD_CAT_ID   = 68353
ELEMENT_SET_NO = 999
REV_AT_EPOCH   = 131
BSTAR          = .43489466E-4
MEAN_MOTION_DOT = .86E-6
MEAN_MOTION_DDOT = 0

CCSDS_OMM_VERS = 2.0
CREATION_DATE  = 
ORIGINATOR     = 

OBJECT_NAME    = CENTISPACE-1 OBJECT E
OBJECT_ID      = 2026-060E
CENTER_NAME    = EARTH
REF_FRAME      = TEME
TIME_SYSTEM    = UTC
MEAN_ELEMENT_THEORY = SGP/SGP4

EPOCH          = 2026-04-03T11:52:11.324064
MEAN_MOTION    = 14.75213159
ECCENTRICITY   = .0013605
INCLINATION    = 54.9777
RA_OF_ASC_NODE = 340.4051
ARG_OF_PERICENTER = 330.4644
MEAN_ANOMALY   = 29.5585

EPHEMERIS_TYPE = 0
CLASSIFICATION_TYPE = U
NORAD_CAT_ID   = 68354
ELEMENT_SET_NO = 999
REV_AT_EPOCH   = 175
BSTAR          = .50949E-4
MEAN_MOTION_DOT = .137E-5
MEAN_MOTION_DDOT = 0

CCSDS_OMM_VERS = 2.0
CREATION_DATE  = 
ORIGINATOR     = 

OBJECT_NAME    = CENTISPACE-1 OBJECT F
OBJECT_ID      = 2026-060F
CENTER_NAME    = EARTH
REF_FRAME      = TEME
TIME_SYSTEM    = UTC
MEAN_ELEMENT_THEORY = SGP/SGP4

EPOCH          = 2026-04-01T12:42:18.852768
MEAN_MOTION    = 14.75237979
ECCENTRICITY   = .00139241
INCLINATION    = 54.9764
RA_OF_ASC_NODE = 348.4206
ARG_OF_PERICENTER = 323.7943
MEAN_ANOMALY   = 36.2113

EPHEMERIS_TYPE = 0
CLASSIFICATION_TYPE = U
NORAD_CAT_ID   = 68355
ELEMENT_SET_NO = 999
REV_AT_EPOCH   = 146
BSTAR          = .38992472E-4
MEAN_MOTION_DOT = .56E-6
MEAN_MOTION_DDOT = 0

CCSDS_OMM_VERS = 2.0
CREATION_DATE  = 
ORIGINATOR     = 

OBJECT_NAME    = CENTISPACE-1 OBJECT G
OBJECT_ID      = 2026-060G
CENTER_NAME    = EARTH
REF_FRAME      = TEME
TIME_SYSTEM    = UTC
MEAN_ELEMENT_THEORY = SGP/SGP4

EPOCH          = 2026-04-02T00:04:31.532736
MEAN_MOTION    = 14.75310904
ECCENTRICITY   = .00142424
INCLINATION    = 54.9880
RA_OF_ASC_NODE = 346.4927
ARG_OF_PERICENTER = 325.6905
MEAN_ANOMALY   = 34.3173

EPHEMERIS_TYPE = 0
CLASSIFICATION_TYPE = U
NORAD_CAT_ID   = 68356
ELEMENT_SET_NO = 999
REV_AT_EPOCH   = 153
BSTAR          = .38325405E-4
MEAN_MOTION_DOT = .51E-6
MEAN_MOTION_DDOT = 0

CCSDS_OMM_VERS = 2.0
CREATION_DATE  = 
ORIGINATOR     = 

OBJECT_NAME    = CENTISPACE-1 OBJECT H
OBJECT_ID      = 2026-060H
CENTER_NAME    = EARTH
REF_FRAME      = TEME
TIME_SYSTEM    = UTC
MEAN_ELEMENT_THEORY = SGP/SGP4

EPOCH          = 2026-04-02T09:49:01.049088
MEAN_MOTION    = 14.75277593
ECCENTRICITY   = .00138214
INCLINATION    = 54.9838
RA_OF_ASC_NODE = 344.8287
ARG_OF_PERICENTER = 328.1926
MEAN_ANOMALY   = 31.8237

EPHEMERIS_TYPE = 0
CLASSIFICATION_TYPE = U
NORAD_CAT_ID   = 68357
ELEMENT_SET_NO = 999
REV_AT_EPOCH   = 159
BSTAR          = .48805088E-4
MEAN_MOTION_DOT = .123E-5
MEAN_MOTION_DDOT = 0

CCSDS_OMM_VERS = 2.0
CREATION_DATE  = 
ORIGINATOR     = 

OBJECT_NAME    = CENTISPACE-1 OBJECT J
OBJECT_ID      = 2026-060J
CENTER_NAME    = EARTH
REF_FRAME      = TEME
TIME_SYSTEM    = UTC
MEAN_ELEMENT_THEORY = SGP/SGP4

EPOCH          = 2026-03-31T22:02:32.676000
MEAN_MOTION    = 14.75410591
ECCENTRICITY   = .00147259
INCLINATION    = 54.9876
RA_OF_ASC_NODE = 350.9118
ARG_OF_PERICENTER = 324.9275
MEAN_ANOMALY   = 35.0754

EPHEMERIS_TYPE = 0
CLASSIFICATION_TYPE = U
NORAD_CAT_ID   = 68358
ELEMENT_SET_NO = 999
REV_AT_EPOCH   = 137
BSTAR          = .44082868E-4
MEAN_MOTION_DOT = .91E-6
MEAN_MOTION_DDOT = 0

CCSDS_OMM_VERS = 2.0
CREATION_DATE  = 
ORIGINATOR     = 

OBJECT_NAME    = CENTISPACE-1 OBJECT K
OBJECT_ID      = 2026-060K
CENTER_NAME    = EARTH
REF_FRAME      = TEME
TIME_SYSTEM    = UTC
MEAN_ELEMENT_THEORY = SGP/SGP4

EPOCH          = 2026-04-01T17:32:29.893920
MEAN_MOTION    = 14.75493204
ECCENTRICITY   = .00151156
INCLINATION    = 54.9775
RA_OF_ASC_NODE = 347.5897
ARG_OF_PERICENTER = 326.6312
MEAN_ANOMALY   = 33.3734

EPHEMERIS_TYPE = 0
CLASSIFICATION_TYPE = U
NORAD_CAT_ID   = 68359
ELEMENT_SET_NO = 999
REV_AT_EPOCH   = 149
BSTAR          = .37852544E-4
MEAN_MOTION_DOT = .49E-6
MEAN_MOTION_DDOT = 0

CCSDS_OMM_VERS = 2.0
CREATION_DATE  = 
ORIGINATOR     = 

OBJECT_NAME    = RASSVET-3 1
OBJECT_ID      = 2026-061A
CENTER_NAME    = EARTH
REF_FRAME      = TEME
TIME_SYSTEM    = UTC
MEAN_ELEMENT_THEORY = SGP/SGP4

EPOCH          = 2026-04-03T11:46:05.206656
MEAN_MOTION    = 15.89651007
ECCENTRICITY   = .00253
INCLINATION    = 82.2953
RA_OF_ASC_NODE = 96.5020
ARG_OF_PERICENTER = 35.0711
MEAN_ANOMALY   = 325.2220

EPHEMERIS_TYPE = 0
CLASSIFICATION_TYPE = U
NORAD_CAT_ID   = 68360
ELEMENT_SET_NO = 999
REV_AT_EPOCH   = 171
BSTAR          = .44936E-3
MEAN_MOTION_DOT = .135363E-2
MEAN_MOTION_DDOT = .52792E-5

